ADRAS-J                 
1 58992U 24034A   24212.50343783  .00004660  00000+0  43026-3 0  9993
2 58992  98.2155 187.5098 0042075 266.0917  93.5491 14.94491714 24339
